NORAD_CAT_ID,OBJECT_NAME,OBJECT_TYPE,EPOCH,MEAN_MOTION,ECCENTRICITY,INCLINATION,RA_OF_ASC_NODE,ARG_OF_PERICENTER,MEAN_ANOMALY,BSTAR,MEAN_MOTION_DOT,MEAN_MOTION_DDOT,TLE_LINE0,TLE_LINE1,TLE_LINE2,SEMIMAJOR_AXIS,PERIOD,APOGEE,PERIGEE,DECAYED
52995.0,STARLINK-4296,PAYLOAD,2024-06-04 04:05:54,15.08841961,0.0001421,53.2176,102.9903,86.7208,273.3947,0.00012694,1.733e-05,0.0,0 STARLINK-4296,1 52995U 22076K   24156.17076860  .00001733  00000-0  12694-3 0  9999,2 52995  53.2176 102.9903 0001421  86.7208 273.3947 15.08841961106161,6917.874,95.437,540.722,538.756,0.0
52995.0,STARLINK-4296,PAYLOAD,2024-06-04 13:38:13,15.08839793,0.0001484,53.2178,101.2067,80.0053,280.1107,8.1463e-05,1.009e-05,0.0,0 STARLINK-4296,1 52995U 22076K   24156.56821242  .00001009  00000-0  81463-4 0  9991,2 52995  53.2178 101.2067 0001484  80.0053 280.1107 15.08839793105758,6917.881,95.438,540.773,538.719,0.0
52995.0,STARLINK-4296,PAYLOAD,2024-06-05 05:32:04,15.08848696,0.0001281,53.2174,98.2291,93.2247,266.8892,2.1226e-05,5e-07,0.0,0 STARLINK-4296,1 52995U 22076K   24157.23060615  .00000050  00000-0  21226-4 0  9991,2 52995  53.2174  98.2291 0001281  93.2247 266.8892 15.08848696106322,6917.854,95.437,540.605,538.833,0.0
52995.0,STARLINK-4296,PAYLOAD,2024-06-05 13:29:00,15.08841376,0.0001504,53.2184,96.744,93.1621,266.9544,-1.2423e-06,-3.08e-06,0.0,0 STARLINK-4296,1 52995U 22076K   24157.56181178 -.00000308  00000-0 -12423-5 0  9993,2 52995  53.2184  96.7440 0001504  93.1621 266.9544 15.08841376105901,6917.876,95.437,540.782,538.701,0.0
52995.0,STARLINK-4296,PAYLOAD,2024-06-06 13:19:47,15.08840396,0.000129,53.2178,92.2824,106.1319,253.9815,4.3552e-05,4.05e-06,0.0,0 STARLINK-4296,1 52995U 22076K   24158.55540962  .00000405  00000-0  43552-4 0  9995,2 52995  53.2178  92.2824 0001290 106.1319 253.9815 15.08840396106057,6917.879,95.438,540.637,538.852,0.0
52995.0,STARLINK-4296,PAYLOAD,2024-06-06 19:41:20,15.08833517,0.0001109,53.2175,91.0936,100.4464,259.6653,4.1638e-05,3.75e-06,0.0,0 STARLINK-4296,1 52995U 22076K   24158.82037392  .00000375  00000-0  41638-4 0  9992,2 52995  53.2175  91.0936 0001109 100.4464 259.6653 15.08833517106568,6917.9,95.438,540.532,538.998,0.0
52995.0,STARLINK-4296,PAYLOAD,2024-06-07 22:42:53,15.08836612,0.0001615,53.2176,86.0365,110.0859,250.0307,3.6756e-05,2.97e-06,0.0,0 STARLINK-4296,1 52995U 22076K   24159.94645429  .00000297  00000-0  36756-4 0  9990,2 52995  53.2176  86.0365 0001615 110.0859 250.0307 15.08836612106263,6917.891,95.438,540.873,538.639,0.0
52995.0,STARLINK-4296,PAYLOAD,2024-06-08 01:53:39,15.08841354,0.0001281,53.2175,85.4434,89.5422,270.5717,8.4386e-05,1.055e-05,0.0,0 STARLINK-4296,1 52995U 22076K   24160.07893121  .00001055  00000-0  84386-4 0  9995,2 52995  53.2175  85.4434 0001281  89.5422 270.5717 15.08841354106752,6917.876,95.437,540.627,538.855,0.0
52995.0,STARLINK-4296,PAYLOAD,2024-06-08 11:25:58,15.08838094,0.000134,53.2171,83.6589,88.3244,271.7901,3.1115e-05,2.07e-06,0.0,0 STARLINK-4296,1 52995U 22076K   24160.47637543  .00000207  00000-0  31115-4 0  9993,2 52995  53.2171  83.6589 0001340  88.3244 271.7901 15.08838094106344,6917.886,95.438,540.678,538.824,0.0
52995.0,STARLINK-4296,PAYLOAD,2024-06-08 19:22:55,15.08833767,0.0001839,53.2192,82.1759,86.2037,273.9166,-2.4585e-05,-6.79e-06,0.0,0 STARLINK-4296,1 52995U 22076K   24160.80758201 -.00000679  00000-0 -24585-4 0  9993,2 52995  53.2192  82.1759 0001839  86.2037 273.9166 15.08833767106866,6917.899,95.438,541.037,538.492,0.0
52995.0,STARLINK-4296,PAYLOAD,2024-06-08 22:33:41,15.08836531,0.0001837,53.2194,81.5818,96.0798,264.0403,-3.2512e-06,-3.4e-06,0.0,0 STARLINK-4296,1 52995U 22076K   24160.94005961 -.00000340  00000-0 -32512-5 0  9991,2 52995  53.2194  81.5818 0001837  96.0798 264.0403 15.08836531106416,6917.891,95.438,541.027,538.485,0.0
52995.0,STARLINK-4296,PAYLOAD,2024-06-09 01:44:26,15.08842485,0.00014,53.2165,80.983,93.9052,266.2101,6.0709e-05,6.78e-06,0.0,0 STARLINK-4296,1 52995U 22076K   24161.07253316  .00000678  00000-0  60709-4 0  9995,2 52995  53.2165  80.9830 0001400  93.9052 266.2101 15.08842485106904,6917.873,95.437,540.706,538.769,0.0
52995.0,STARLINK-4296,PAYLOAD,2024-06-09 19:13:42,15.08834977,0.0001465,53.2184,77.7171,98.1932,261.9226,-2.8306e-05,-7.38e-06,0.0,0 STARLINK-4296,1 52995U 22076K   24161.80118462 -.00000738  00000-0 -28306-4 0  9994,2 52995  53.2184  77.7171 0001465  98.1932 261.9226 15.08834977107012,6917.896,95.438,540.774,538.747,0.0
52995.0,STARLINK-4296,PAYLOAD,2024-06-09 22:24:28,15.08835492,0.0001442,53.2185,77.1222,96.585,263.5307,-4.4683e-05,-9.99e-06,0.0,0 STARLINK-4296,1 52995U 22076K   24161.93366523 -.00000999  00000-0 -44683-4 0  9996,2 52995  53.2185  77.1222 0001442  96.5850 263.5307 15.08835492106560,6917.894,95.438,540.757,538.762,0.0
52995.0,STARLINK-4296,PAYLOAD,2024-06-10 11:07:33,15.08838049,0.000135,53.218,74.7402,81.4024,278.7121,4.9621e-05,5.02e-06,0.0,0 STARLINK-4296,1 52995U 22076K   24162.46358155  .00000502  00000-0  49621-4 0  9992,2 52995  53.2180  74.7402 0001350  81.4024 278.7121 15.08838049106644,6917.886,95.438,540.685,538.817,0.0
52995.0,STARLINK-4296,PAYLOAD,2024-06-10 22:15:14,15.08846642,0.0001391,53.2171,72.6575,79.7478,280.3671,0.00017863,2.557e-05,0.0,0 STARLINK-4296,1 52995U 22076K   24162.92725226  .00002557  00000-0  17863-3 0  9994,2 52995  53.2171  72.6575 0001391  79.7478 280.3671 15.08846642106715,6917.86,95.437,540.687,538.763,0.0
52995.0,STARLINK-4296,PAYLOAD,2024-06-11 03:01:22,15.0887122,0.0001334,53.2173,71.7661,80.5974,279.5169,1.832e-06,-2.59e-06,0.0,0 STARLINK-4296,1 52995U 22076K   24163.12596009 -.00000259  00000-0  18320-5 0  9991,2 52995  53.2173  71.7661 0001334  80.5974 279.5169 15.08871220107219,6917.785,95.436,540.573,538.727,0.0
52995.0,STARLINK-4296,PAYLOAD,2024-06-11 10:58:20,15.08840023,0.0001233,53.2185,70.2809,96.8067,263.3066,8.7902e-05,1.111e-05,0.0,0 STARLINK-4296,1 52995U 22076K   24163.45717633  .00001111  00000-0  87902-4 0  9993,2 52995  53.2185  70.2809 0001233  96.8067 263.3066 15.08840023106797,6917.88,95.438,540.598,538.892,0.0
52995.0,STARLINK-4296,PAYLOAD,2024-06-12 01:16:48,15.08834095,0.0001625,53.2194,67.6046,93.2122,266.9056,2.6396e-05,1.32e-06,0.0,0 STARLINK-4296,1 52995U 22076K   24164.05334435  .00000132  00000-0  26396-4 0  9997,2 52995  53.2194  67.6046 0001625  93.2122 266.9056 15.08834095107351,6917.898,95.438,540.888,538.639,0.0
52995.0,STARLINK-4296,PAYLOAD,2024-06-12 21:56:50,15.08835738,0.0001687,53.219,63.7382,83.4293,276.6891,-0.00011526,-2.122e-05,0.0,0 STARLINK-4296,1 52995U 22076K   24164.91447006 -.00002122  00000-0 -11526-3 0  9992,2 52995  53.2190  63.7382 0001687  83.4293 276.6891 15.08835738107018,6917.893,95.438,540.925,538.591,0.0
52995.0,STARLINK-4296,PAYLOAD,2024-06-13 02:42:59,15.08844513,0.0001488,53.2189,62.8423,98.7292,261.3868,-0.00014603,-2.612e-05,0.0,0 STARLINK-4296,1 52995U 22076K   24165.11318399 -.00002612  00000-0 -14603-3 0  9990,2 52995  53.2189  62.8423 0001488  98.7292 261.3868 15.08844513107510,6917.867,95.437,540.761,538.702,0.0
52995.0,STARLINK-4296,PAYLOAD,2024-06-13 10:39:54,15.08845604,0.0001521,53.2191,61.3569,95.3467,264.7698,-0.00012686,-2.307e-05,0.0,0 STARLINK-4296,1 52995U 22076K   24165.44438249 -.00002307  00000-0 -12686-3 0  9993,2 52995  53.2191  61.3569 0001521  95.3467 264.7698 15.08845604107096,6917.863,95.437,540.78,538.676,0.0
52995.0,STARLINK-4296,PAYLOAD,2024-06-13 21:47:36,15.08837703,0.0001579,53.2188,59.2747,100.1737,259.9433,0.00011811,1.592e-05,0.0,0 STARLINK-4296,1 52995U 22076K   24165.90806175  .00001592  00000-0  11811-3 0  9993,2 52995  53.2188  59.2747 0001579 100.1737 259.9433 15.08837703107166,6917.887,95.438,540.845,538.66,0.0
52995.0,STARLINK-4296,PAYLOAD,2024-06-13 23:22:59,15.08844413,0.0001503,53.2188,58.9769,104.6666,255.4493,4.4575e-05,4.22e-06,0.0,0 STARLINK-4296,1 52995U 22076K   24165.97430014  .00000422  00000-0  44575-4 0  9990,2 52995  53.2188  58.9769 0001503 104.6666 255.4493 15.08844413107177,6917.867,95.437,540.772,538.692,0.0
52995.0,STARLINK-4296,PAYLOAD,2024-06-14 21:38:23,15.08838413,0.0001425,53.2175,54.8149,101.1232,258.992,0.00015136,2.122e-05,0.0,0 STARLINK-4296,1 52995U 22076K   24166.90166311  .00002122  00000-0  15136-3 0  9999,2 52995  53.2175  54.8149 0001425 101.1232 258.9920 15.08838413107316,6917.885,95.438,540.736,538.764,0.0
52995.0,STARLINK-4296,PAYLOAD,2024-06-14 23:13:46,15.08843202,0.0001279,53.2172,54.5188,94.6077,265.5062,0.00010682,1.413e-05,0.0,0 STARLINK-4296,1 52995U 22076K   24166.96790190  .00001413  00000-0  10682-3 0  9996,2 52995  53.2172  54.5188 0001279  94.6077 265.5062 15.08843202107327,6917.871,95.437,540.62,538.851,0.0
52995.0,STARLINK-4296,PAYLOAD,2024-06-15 23:04:33,15.08844349,0.0001338,53.2177,50.0605,92.1859,267.9287,5.6319e-05,6.09e-06,0.0,0 STARLINK-4296,1 52995U 22076K   24167.96150278  .00000609  00000-0  56319-4 0  9998,2 52995  53.2177  50.0605 0001338  92.1859 267.9287 15.08844349107478,6917.867,95.437,540.658,538.806,0.0
52995.0,STARLINK-4296,PAYLOAD,2024-06-16 08:36:52,15.08842094,0.0001411,53.2184,48.2776,93.5915,266.5239,2.709e-05,1.43e-06,0.0,0 STARLINK-4296,1 52995U 22076K   24168.35894465  .00000143  00000-0  27090-4 0  9992,2 52995  53.2184  48.2776 0001411  93.5915 266.5239 15.08842094107538,6917.874,95.437,540.715,538.763,0.0
52995.0,STARLINK-4296,PAYLOAD,2024-06-16 22:55:21,15.08836942,0.0001592,53.2201,45.6054,102.3774,257.7396,5.7177e-06,-1.97e-06,0.0,0 STARLINK-4296,1 52995U 22076K   24168.95510958 -.00000197  00000-0  57177-5 0  9990,2 52995  53.2201  45.6054 0001592 102.3774 257.7396 15.08836942107621,6917.89,95.438,540.856,538.653,0.0
52995.0,STARLINK-4296,PAYLOAD,2024-06-17 21:10:45,15.08840172,0.0001501,53.2194,41.4418,101.3794,258.7366,3.5523e-05,2.77e-06,0.0,0 STARLINK-4296,1 52995U 22076K   24169.88246812  .00000277  00000-0  35523-4 0  9996,2 52995  53.2194  41.4418 0001501 101.3794 258.7366 15.08840172108237,6917.88,95.438,540.783,538.706,0.0
